{
  "norad_id": 63635,
  "name": "STARLINK-33854",
  "history": [
    {
      "epoch": "2026-03-28T19:27:24.950016Z",
      "apogee_km": 484.21535106526335,
      "perigee_km": 481.65877764740344,
      "latitude_deg": 8.055719680655334e-06,
      "longitude_deg": 138.93974655485187,
      "height_km": 482.5491685734999,
      "semi_major_axis_km": 6861.074064356333,
      "eccentricity": 0.00018631,
      "inclination_deg": 43.0008,
      "raan_deg": 257.0195,
      "arg_perigee_deg": 277.4192,
      "mean_anomaly_deg": 82.6448,
      "mean_motion_rev_day": 15.27617415
    }
  ]
}