{"fetched_at":"2026-03-30T13:17:50Z","count":15418,"tles":[{"name":"STARLINK-33854","line1":"1 63635U 25083B   26087.81070544  .00039691  00000+0  14425-2 0  9998","line2":"2 63635  43.0008 257.0195 0001863 277.4192  82.6448 15.27617415 52995","category":"Starlink"}]}